{"type":"FeatureCollection","features":[{"type":"Feature","id":"relation/11482118","properties":{"admin_level":"8","boundary":"local_authority","local_authority:IN":"municipality","name":"Kottayam","name:ml":"കോട്ടയം","type":"boundary","wikidata":"Q13111690","id":"relation/11482118"},"geometry":{"type":"Polygon","coordinates":[[[76.4957213,9.5111271],[76.495732,9.5128518],[76.4952707,9.5147882],[76.496365,9.5162379],[76.4977169,9.5169997],[76.4992833,9.516513],[76.5001631,9.5160897],[76.5015793,9.5160791],[76.5020084,9.5172536],[76.5034032,9.518079],[76.5070938,9.5181636],[76.5094542,9.5180367],[76.5109508,9.518017],[76.5126728,9.5179943],[76.5131664,9.5160897],[76.5155804,9.5157088],[76.5187024,9.5151057],[76.5199095,9.5138782],[76.5211057,9.5124974],[76.5216851,9.511508],[76.5225488,9.5106245],[76.5238469,9.5107726],[76.5252042,9.5110054],[76.5268749,9.5111671],[76.5272265,9.5112011],[76.5287662,9.5110371],[76.5299892,9.5106457],[76.5314108,9.5098574],[76.5327734,9.5090055],[76.5343773,9.5090743],[76.5357935,9.5100108],[76.5352249,9.5118996],[76.535005,9.5130688],[76.5347743,9.5140476],[76.5347457,9.5144088],[76.5346885,9.5151321],[76.5345115,9.516222],[76.5344846,9.5167563],[76.5349566,9.519391],[76.5338194,9.5217718],[76.5333366,9.5231368],[76.5329719,9.5242794],[76.5330791,9.5252529],[76.5337014,9.5262158],[76.5336156,9.5269353],[76.5328539,9.5274644],[76.5325215,9.527523],[76.532135,9.5275912],[76.5312874,9.5271575],[76.5300107,9.5255598],[76.5286588,9.5256232],[76.527028,9.525528],[76.5263199,9.5263639],[76.5261805,9.5274802],[76.5262127,9.528406],[76.5262449,9.5298767],[76.5257406,9.5312523],[76.5259766,9.5330615],[76.5248823,9.5342994],[76.5247695,9.5351335],[76.5246892,9.5357279],[76.5247214,9.5370293],[76.523627,9.538299],[76.5238416,9.5389443],[76.5240026,9.5404044],[76.5234232,9.5407695],[76.522738,9.5412058],[76.5225541,9.5416001],[76.5224039,9.5432506],[76.5223856,9.544161],[76.5223717,9.5448482],[76.5226239,9.5451921],[76.5228492,9.5455624],[76.523112,9.5459274],[76.5238738,9.5470172],[76.5240347,9.548583],[76.5253222,9.5499585],[76.5263414,9.5513656],[76.5268242,9.5520851],[76.5273018,9.5531027],[76.527425,9.5533652],[76.5278863,9.5547724],[76.5282833,9.5562747],[76.5283954,9.5564825],[76.5288197,9.5572693],[76.5294742,9.5572904],[76.5302467,9.5573221],[76.5305042,9.557957],[76.5307402,9.5585389],[76.5310943,9.5595439],[76.5312114,9.5596905],[76.5320921,9.5607924],[76.5327787,9.562591],[76.5342378,9.5648021],[76.5363729,9.5677432],[76.5345811,9.5681875],[76.5343344,9.5691186],[76.5340233,9.5693301],[76.5340984,9.572578],[76.5318668,9.5726944],[76.5320492,9.5759317],[76.5311587,9.5760269],[76.5297961,9.5771378],[76.5291524,9.5776667],[76.5287661,9.5788728],[76.5280258,9.5803432],[76.5281653,9.5809145],[76.5284764,9.5819513],[76.5294099,9.5819619],[76.5308476,9.5819302],[76.5343987,9.5818772],[76.535933,9.581835],[76.5361368,9.5809992],[76.5367377,9.5792641],[76.5373385,9.5777937],[76.5378642,9.5758048],[76.5382933,9.5748103],[76.5387118,9.5734985],[76.5389263,9.5724299],[76.5393126,9.5712979],[76.539731,9.5705044],[76.5411365,9.5701184],[76.5421454,9.5699881],[76.5426432,9.5699262],[76.5439904,9.5699967],[76.5454173,9.5699014],[76.5466082,9.5702823],[76.5484643,9.5704093],[76.5483785,9.5717846],[76.5488076,9.5722501],[76.5490436,9.5732445],[76.549505,9.5743872],[76.550256,9.5752017],[76.5510323,9.5757469],[76.5516722,9.5761962],[76.5522194,9.5768627],[76.5521442,9.5775397],[76.5513932,9.5785766],[76.5507388,9.5796027],[76.5496981,9.5808828],[76.5486574,9.5819619],[76.5475953,9.5829775],[76.5474202,9.583793],[76.5472841,9.5844269],[76.5474922,9.5855137],[76.5476811,9.5865003],[76.5477146,9.5881301],[76.5477239,9.5885844],[76.5478849,9.590076],[76.5486252,9.5926996],[76.5484321,9.5949105],[76.5470803,9.5950797],[76.5464258,9.5954289],[76.5458357,9.5964973],[76.5454066,9.5975658],[76.5448915,9.5981053],[76.5433574,9.5986871],[76.5425956,9.5990467],[76.5418983,9.6001152],[76.5411902,9.6006865],[76.5403962,9.6017972],[76.5388405,9.6018183],[76.5374672,9.6021992],[76.5371776,9.6030667],[76.5368557,9.6047698],[76.5377676,9.6042726],[76.5385187,9.6040716],[76.5393126,9.6039552],[76.5399563,9.6040504],[76.5404498,9.6044842],[76.5410399,9.6056266],[76.5423167,9.6073086],[76.5437972,9.6089165],[76.5448916,9.60953],[76.5458465,9.6099849],[76.5467227,9.6101694],[76.5468013,9.6101859],[76.5486467,9.6100907],[76.5509963,9.6097416],[76.5516014,9.6097765],[76.5526485,9.6098368],[76.5534854,9.6102388],[76.5544081,9.6107783],[76.5561569,9.6121429],[76.5566472,9.6139759],[76.5569293,9.6150307],[76.5571225,9.6158875],[76.5573585,9.6162472],[76.5584206,9.6166174],[76.5599656,9.6169348],[76.561017,9.617379],[76.5612745,9.6179291],[76.5614462,9.6193148],[76.5608024,9.6210284],[76.5601373,9.6220439],[76.5586352,9.6230382],[76.5572405,9.6241172],[76.5568649,9.6252173],[76.5565431,9.6258731],[76.5546334,9.6260423],[76.5527773,9.6261693],[76.5522838,9.6269944],[76.5526914,9.6282214],[76.5518975,9.628856],[76.5509748,9.6285916],[76.550138,9.6282425],[76.5490008,9.6280521],[76.5481532,9.6280204],[76.5472062,9.6278818],[76.5464901,9.6277771],[76.5447736,9.6271213],[76.5436041,9.6270895],[76.5435934,9.6275867],[76.5444302,9.6284329],[76.5441513,9.6291205],[76.5427566,9.63021],[76.5425635,9.6303369],[76.5413994,9.6300354],[76.5404016,9.6305061],[76.5402621,9.632426],[76.5394199,9.632865],[76.5384181,9.6332012],[76.5379071,9.6333727],[76.5368342,9.6334996],[76.5360403,9.634367],[76.5352035,9.6355094],[76.5343236,9.6364824],[76.5333581,9.6373286],[76.532371,9.6381537],[76.5319419,9.6386402],[76.5311693,9.6381537],[76.5296459,9.6377094],[76.5273714,9.6362709],[76.5258264,9.6370959],[76.5247584,9.6367982],[76.5234553,9.6360858],[76.5223589,9.6364748],[76.5209064,9.6365243],[76.516648,9.6345833],[76.516825,9.6341317],[76.5167722,9.6327856],[76.5169628,9.6322817],[76.5185308,9.6310668],[76.5179729,9.6297128],[76.5176296,9.6265395],[76.5173488,9.6260678],[76.5154864,9.6250623],[76.5153805,9.6249938],[76.5154378,9.624191],[76.5155804,9.622192],[76.5153337,9.6208169],[76.5150654,9.6193571],[76.5157306,9.6186167],[76.5157769,9.6184909],[76.5165246,9.61758],[76.516603,9.6173697],[76.5169054,9.6165592],[76.5162027,9.6161361],[76.5155267,9.6153745],[76.5144646,9.614322],[76.5136116,9.6136132],[76.513323,9.6130441],[76.5129303,9.6122698],[76.512014,9.6120683],[76.5110957,9.6122011],[76.5104198,9.6120952],[76.5100122,9.6118572],[76.5101516,9.6111908],[76.5106344,9.6098686],[76.5106789,9.609652],[76.5108061,9.6090328],[76.5107739,9.6084193],[76.5105057,9.6078693],[76.5102321,9.6075016],[76.5101489,9.6067849],[76.5094114,9.6067214],[76.5085262,9.6064412],[76.5082204,9.6051294],[76.5079844,9.6045899],[76.5080058,9.6040504],[76.5085852,9.6028974],[76.509068,9.6021992],[76.5100551,9.6015962],[76.5108275,9.6012471],[76.5114283,9.6009509],[76.5118039,9.6005913],[76.5120506,9.5998931],[76.5119862,9.5993959],[76.5113747,9.5991103],[76.5101087,9.5992478],[76.5092075,9.5993536],[76.5078664,9.5994594],[76.5069115,9.5995122],[76.5061712,9.5995017],[76.5053236,9.5994699],[76.5050366,9.599261],[76.5045404,9.5989066],[76.5038753,9.5980735],[76.5037506,9.5978821],[76.5029311,9.5966243],[76.5023196,9.5950851],[76.5014945,9.5936951],[76.5013808,9.5935035],[76.5001255,9.5920172],[76.4998174,9.5916863],[76.4989239,9.5907266],[76.4979315,9.5905362],[76.4968586,9.5913455],[76.4958823,9.5919696],[76.4952385,9.5923399],[76.4944124,9.5923399],[76.4937365,9.5919167],[76.4931275,9.5914953],[76.4926207,9.5911445],[76.4915371,9.5902664],[76.490947,9.5896211],[76.4910436,9.5883305],[76.4910542,9.5881442],[76.4910865,9.5875794],[76.4909899,9.587262],[76.4905071,9.5872726],[76.4896488,9.5875371],[76.4890265,9.5875794],[76.4885867,9.5874101],[76.4883399,9.5871351],[76.4883506,9.5867119],[76.4887011,9.5853469],[76.4889836,9.584247],[76.4886403,9.5834112],[76.4880824,9.5828611],[76.4876962,9.5824274],[76.4875674,9.5820994],[76.4875998,9.5819702],[76.487782,9.5812425],[76.4880824,9.5803856],[76.4889836,9.5805125],[76.4894986,9.5805549],[76.4900243,9.5803221],[76.4903355,9.5798672],[76.4902282,9.5794335],[76.4897776,9.5792007],[76.4892197,9.5789468],[76.4888227,9.5786612],[76.4889514,9.5783121],[76.4899921,9.5781957],[76.4898324,9.5775167],[76.489681,9.5768733],[76.4889943,9.5754662],[76.4886939,9.5747151],[76.4887047,9.5736148],[76.488415,9.5697533],[76.4882106,9.5686096],[76.488018,9.5675316],[76.4893591,9.5650666],[76.4902711,9.5635748],[76.490947,9.5625063],[76.4914191,9.5615435],[76.4925778,9.5599777],[76.4937472,9.5591948],[76.4947665,9.5589409],[76.4962041,9.5589515],[76.4971697,9.5588668],[76.4988756,9.5588351],[76.4998841,9.5576395],[76.5004487,9.557215],[76.501826,9.5561795],[76.5018904,9.5550792],[76.5018368,9.5541905],[76.5019011,9.5535557],[76.5030384,9.5529738],[76.5057635,9.5517782],[76.5069008,9.5506673],[76.5073514,9.5497574],[76.5072012,9.5490274],[76.5069222,9.5481704],[76.5059888,9.5453137],[76.5050125,9.5396109],[76.5049152,9.538037],[76.5047443,9.5352729],[76.5043473,9.5337175],[76.5025341,9.5318447],[76.5016436,9.530702],[76.4999699,9.5295699],[76.4973199,9.5292842],[76.4940905,9.5294852],[76.4825857,9.5284067],[76.4830192,9.5080823],[76.4848962,9.5083435],[76.4897668,9.5090214],[76.4928915,9.5073615],[76.4935756,9.5085664],[76.49423,9.5099314],[76.4957213,9.5111271]]]}},{"type":"Feature","id":"node/297681854","properties":{"id":"node/297681854"},"geometry":{"type":"Point","coordinates":[76.5221599,9.591564]}}]}